P/2017 G2 (PANSTARRS),e,47.9672,79.8866,105.2949,8.043329,0.0432066,0.64794884,105.3379,02/11.0/2024,2000,g 13.0,4.0
# From MPEC 2024-C04
C/2017 K2 (PANSTARRS),h,12/19.6362/2022,87.5738,88.2312,236.2056,1.000533,1.797560,2000,1.5,4.0
# From MPEC 2021-N06
P/2017 K3 (Gasparovic),e,4.2736,354.3026,253.3319,5.584960,0.0746748,0.57891643,183.2070,02/11.0/2024,2000,g 14.5,4.0
# From MPEC 2021-P47
C/2017 K5 (PANSTARRS),h,03/26.8809/2020,82.2679,102.4308,172.0351,1.004004,7.684836,2000,5.0,4.0
# From MPEC 2022-OB6
C/2017 M4 (ATLAS),h,01/17.9130/2019,105.6260,66.0134,167.5326,1.000819,3.245395,2000,6.0,4.0
# From MPC114599
P/2017 P1 (PANSTARRS),e,7.6878,221.4625,122.7878,7.919650,0.0442227,0.31009588,91.0653,02/11.0/2024,2000,g 10.0,4.0
# From MPEC 2022-OB6
P/2017 S8 (PANSTARRS),e,29.8451,191.5335,254.8687,2.778774,0.2127768,0.39097565,109.2988,02/11.0/2024,2000,g 16.0,4.0
# From MPEC 2024-A43
C/2017 T2 (PANSTARRS),e,57.2891,64.4454,92.8431,1490,0.0000171,0.99891940,0.0000,05/05.1455/2020,2000,g  5.0,4.0
# From MPC115882
P/2017 TW13 (Lemmon),e,44.8665,322.2168,119.9225,7.135277,0.0517116,0.71065608,106.4835,02/11.0/2024,2000,g 15.0,2.0
# From MPEC 2022-K19
P/2017 U3 (PANSTARRS),e,15.9179,165.0874,296.2330,4.922116,0.0902560,0.10029481,159.2978,02/11.0/2024,2000,g 11.0,4.0
# From MPEC 2023-A50
C/2017 U7 (PANSTARRS),h,09/15.9510/2019,142.6296,276.2962,326.4620,1.002499,6.427335,2000,8.3,2.0
# From MPC114601
P/2017 W3 (Gibbs),e,18.1742,210.1507,327.7768,7.824575,0.0450311,0.50645255,97.9862,02/11.0/2024,2000,g 10.5,4.0
# From MPEC 2022-TD3
C/2017 Y2 (PANSTARRS),h,11/04.9142/2020,128.4350,66.0461,147.9079,1.000709,4.632099,2000,15.0,4.0
# From MPC111770
P/2017 Y3 (Leonard),e,27.5896,153.9155,67.4868,9.807345,0.0320905,0.86932644,70.4350,02/11.0/2024,2000,g 16.5,4.0
# From MPEC 2021-P47
C/2018 A3 (ATLAS),e,139.5580,194.3092,86.3952,347.4895,0.0001522,0.99054867,0.0000,01/09.7043/2019,2000,g  8.5,4.0
# From MPC109147
P/2018 A5 (PANSTARRS),e,23.6160,87.7835,359.5023,5.626067,0.0738579,0.52411899,171.9910,02/11.0/2024,2000,g 15.0,4.0
# From MPEC 2023-UR6
C/2018 A6 (Gibbs),e,77.0962,340.4055,264.3189,15.01671,0.0169372,0.79897995,28.3922,02/11.0/2024,2000,g  9.0,4.0
# From MPC114601
P/2018 C1 (Lemmon-Read),e,5.1070,270.2848,235.7144,5.651129,0.0733671,0.53223514,159.8503,02/11.0/2024,2000,g 13.5,4.0
# From MPEC 2022-M88
C/2018 DO4 (Lemmon),e,160.4461,251.3935,176.3274,25.42776,0.0076867,0.90501040,12.5982,02/11.0/2024,2000,g 11.0,4.0
# From MPEC 2021-R75
C/2018 F1 (Grauer),e,46.1073,177.2871,71.5333,227.0582,0.0002881,0.98680287,0.0000,12/10.8502/2018,2000,g 11.5,4.0
# From MPEC 2023-A50
C/2018 F4 (PANSTARRS),e,78.0890,26.5172,263.2081,2659,0.0000072,0.99870420,0.0000,12/02.0630/2019,2000,g 11.0,6.0
# From MPEC 2021-Y10
C/2018 F4-A,e,78.0892,26.5174,263.2049,2555,0.0000076,0.99865124,0.0000,12/02.0512/2019,2000,g 11.0,6.0
# From MPEC 2023-D41
C/2018 F4-B,e,78.0901,26.5169,263.1907,2735,0.0000069,0.99874002,0.0000,12/01.9879/2019,2000,g 11.0,6.0
# From MPC114602
P/2018 H2 (PANSTARRS),e,7.4195,67.9830,119.5429,4.394299,0.1069965,0.54100958,238.8927,02/11.0/2024,2000,g 16.6,2.0
# From MPEC 2021-R75
C/2018 KJ3 (Lemmon),e,136.6421,91.6807,217.6121,841.6923,0.0000404,0.99569664,0.0000,09/09.7594/2019,2000,g 12.2,2.0
# From MPC114602
P/2018 L1 (PANSTARRS),e,10.5791,268.5949,18.0066,3.655628,0.1410136,0.48133732,270.6095,02/11.0/2024,2000,g 15.0,4.0
# From MPEC 2021-P47
C/2018 L2 (ATLAS),e,67.2080,242.9858,56.3471,247.8975,0.0002525,0.99306585,0.0000,12/01.1830/2018,2000,g 10.0,4.0
# From MPC114603
P/2018 L4 (PANSTARRS),e,26.6023,145.2077,140.5753,4.947102,0.0895731,0.65843670,181.2055,02/11.0/2024,2000,g 17.5,4.0
# From MPC119996
P/2018 L5 (Leonard),e,2.2089,219.0576,93.9280,3.629251,0.1425537,0.36389119,300.4261,02/11.0/2024,2000,g 14.5,4.0
# From MPEC 2022-YN2
C/2018 N2 (ASASSN),h,11/11.7640/2019,77.5487,24.4944,25.2633,1.001545,3.131178,2000,6.0,4.0
# From MPEC 2024-BD5
P/2018 P3 (PANSTARRS),e,8.9151,59.1585,306.0177,3.004481,0.1892561,0.41730132,8.7522,02/11.0/2024,2000,g 14.5,4.0
# From MPC114603
P/2018 P4 (PANSTARRS),e,23.0998,353.1419,8.4666,6.690613,0.0569515,0.45003498,109.3495,02/11.0/2024,2000,g 12.0,4.0
# From MPEC 2021-P47
C/2018 P5 (PANSTARRS),e,7.2458,216.2510,132.0107,12.85269,0.0213901,0.64250218,38.7007,02/11.0/2024,2000,g 11.0,4.0
# From MPC118841
C/2018 R3 (Lemmon),e,69.7146,324.5237,112.7174,1633,0.0000149,0.99921482,0.0000,06/08.0195/2019,2000,g  9.5,4.0
# From MPC114603
C/2018 R5 (Lemmon),e,103.7307,171.2000,178.2381,22.95744,0.0089602,0.84156743,16.6436,02/11.0/2024,2000,g 11.5,4.0
# From MPEC 2022-QC6
C/2018 S2 (TESS),e,64.1228,85.1197,290.8562,14.36883,0.0180956,0.61861894,34.7853,02/11.0/2024,2000,g  7.5,4.0
# From MPEC 2023-N01
C/2018 U1 (Lemmon),h,11/02.8639/2021,108.3243,75.5080,180.4417,1.001145,4.991090,2000,5.0,4.0
# From MPC114604
C/2018 V1 (Machholz-Fujikawa-Iwamoto),h,12/03.1150/2018,144.1462,129.3090,89.3474,1.000406,0.391756,2000,12.0,4.0
# From MPC115884
C/2018 V2 (ATLAS),e,159.1666,357.1210,319.1429,25.15087,0.0078140,0.90097653,14.8748,02/11.0/2024,2000,g 15.0,4.0
# From MPEC 2023-CD7
P/2018 VN2 (Leonard),e,18.2603,226.4411,138.9177,4.061744,0.1204024,0.47851588,249.6568,02/11.0/2024,2000,g 15.0,4.0
# From MPEC 2022-VC5
A/2018 V3,e,164.9421,308.7562,3.6141,128.4742,0.0006768,0.98959391,0.0000,09/09.8657/2019,2000,g 15.7,2.0
# From MPEC 2022-M21
C/2018 V4 (Africano),e,69.0329,78.2624,359.9912,208.0489,0.0003284,0.98463675,0.0000,03/02.0688/2019,2000,g 12.5,4.0
# From MPEC 2021-P47
P/2018 V5 (Trujillo-Sheppard),e,10.5862,171.3231,260.7110,8.969400,0.0366910,0.47591174,71.7274,02/11.0/2024,2000,g 12.5,4.0
# From MPEC 2021-P47
C/2018 W1 (Catalina),e,83.4215,233.6563,251.2045,21.70841,0.0097446,0.93752748,16.9109,02/11.0/2024,2000,g 15.5,2.0
# From MPEC 2021-P47
C/2018 W2 (Africano),h,09/05.3456/2019,116.6030,181.8642,158.1575,1.000782,1.464386,2000,9.5,4.0
# From MPEC 2023-M14
A/2018 W3,e,104.8353,251.6856,313.9415,717.3446,0.0000513,0.99402176,0.0000,04/13.0899/2021,2000,g 10.7,2.0
# From MPC119996
C/2018 X2 (Fitzsimmons),e,23.0835,340.7462,161.9416,139.1327,0.0006006,0.98479413,0.0000,07/08.7348/2019,2000,g 12.0,4.0
# From MPC114604
C/2018 X3 (PANSTARRS),e,43.4160,78.8086,359.7805,12.38940,0.0226011,0.78284812,42.1971,02/11.0/2024,2000,g 14.5,4.0
# From MPEC 2024-A43
C/2018 Y1 (Iwamoto),e,160.4373,147.4264,357.8727,127.4782,0.0006848,0.98990960,0.0000,02/04.8309/2019,2000,g 11.5,4.0
# From MPC114605
P/2018 Y2 (Africano),e,11.6888,297.1601,162.2816,7.453735,0.0484332,0.47973541,90.3316,02/11.0/2024,2000,g 11.5,4.0
# From MPC114605
P/2019 A1 (PANSTARRS),e,13.7588,312.2398,150.7242,5.114356,0.0852153,0.56977260,165.9708,02/11.0/2024,2000,g 16.0,4.0
# From MPEC 2021-P47
P/2019 A2 (ATLAS),e,14.8650,139.4046,323.8740,5.711818,0.0722009,0.38277159,137.6998,02/11.0/2024,2000,g 10.5,4.0
# From MPEC 2022-M21
P/2019 A3 (PANSTARRS),e,15.3748,31.3557,325.6500,3.143842,0.1768125,0.26612681,356.3463,02/11.0/2024,2000,g 16.0,4.0
# From MPEC 2022-L66
P/2019 A4 (PANSTARRS),e,13.3043,119.3653,343.0542,2.614276,0.2331723,0.08729561,80.2359,02/11.0/2024,2000,g 15.0,4.0
# From MPEC 2021-P47
C/2019 A5 (PANSTARRS),e,67.5483,146.5719,355.7755,21.47748,0.0099021,0.70613022,16.9385,02/11.0/2024,2000,g  9.5,4.0
# From MPC114605
P/2019 A6 (Lemmon-PANSTARRS),e,33.2762,280.1931,156.1985,5.356917,0.0794935,0.64030753,158.1651,02/11.0/2024,2000,g 16.0,4.0
# From MPC115884
P/2019 A8 (PANSTARRS),e,2.2101,114.5012,64.1782,4.329912,0.1093920,0.22858897,228.1090,02/11.0/2024,2000,g 16.0,4.0
# From MPC118842
C/2019 A9 (PANSTARRS),e,84.3304,278.4387,237.9056,39.16502,0.0040212,0.96349514,6.6785,02/11.0/2024,2000,g 15.0,4.0
# From MPEC 2022-L66
C/2019 B1 (Africano),e,123.4322,290.2969,174.7748,138.1938,0.0006067,0.98844226,0.0000,03/18.7096/2019,2000,g 16.0,4.0
# From MPC115885
P/2019 B2 (Groeller),e,16.9788,175.7282,0.8319,3.920996,0.1269432,0.35847021,219.0818,02/11.0/2024,2000,g 14.5,4.0
# From MPEC 2024-A43
C/2019 B3 (PANSTARRS),e,66.5525,358.4231,263.9729,6611,0.0000018,0.99896741,0.0000,01/20.0287/2021,2000,g  5.5,4.0
# From MPEC 2021-P47
C/2019 C1 (ATLAS),e,36.0510,212.3916,319.0303,647.9353,0.0000598,0.98985675,0.0000,05/04.0844/2020,2000,g 10.0,4.0
# From MPEC 2022-O08
C/2019 D1 (Flewelling),e,33.9958,231.6469,70.7263,140.4630,0.0005921,0.98868610,0.0000,05/10.3758/2019,2000,g 13.0,4.0
# From MPEC 2024-C04
C/2019 E3 (ATLAS),e,84.2998,347.2285,280.7024,7123,0.0000016,0.99855214,0.0000,11/15.3332/2023,2000,g  2.5,4.0
# From MPEC 2024-AF0
C/2019 F1 (ATLAS-Africano),h,06/22.2720/2021,54.2355,38.6637,251.3412,1.001638,3.607424,2000,5.5,4.0
# From MPEC 2021-P47
C/2019 F2 (ATLAS),e,19.3007,175.3993,11.6415,16.58875,0.0145876,0.86465858,23.5965,02/11.0/2024,2000,g 12.0,4.0
# From MPEC 2021-P47
A/2019 G2,e,159.2222,208.1744,82.6396,411.7373,0.0001180,0.99442065,0.0000,12/07.7322/2019,2000,g 16.5,2.0
# From MPEC 2022-VC5
A/2019 G3,e,156.8039,49.9130,161.8530,17.17472,0.0138474,0.83449694,26.2330,02/11.0/2024,2000,g 17.1,2.0
# From MPC114607
P/2019 GG21 (PANSTARRS),e,6.0867,340.5604,208.5828,7.467960,0.0482949,0.47177241,83.9454,02/11.0/2024,2000,g 12.0,4.0
# From MPEC 2022-M21
C/2019 H1 (NEOWISE),e,104.4013,269.2947,19.3072,240.8604,0.0002637,0.99234818,0.0000,04/27.7723/2019,2000,g 15.5,4.0
# From MPEC 2023-A50
C/2019 J1 (Lemmon),e,24.5321,98.1973,167.6856,67.60412,0.0017731,0.96323383,3.1403,02/11.0/2024,2000,g 12.0,4.0
# From MPEC 2021-R75
C/2019 J2 (Palomar),e,105.2569,25.5437,98.6474,160.9155,0.0004828,0.98930864,0.0000,07/20.4802/2019,2000,g 13.0,4.0
# From MPC117071
C/2019 J3 (ATLAS),h,08/02.4669/2019,131.3213,270.6332,16.5727,1.000432,2.367316,2000,13.5,4.0
# From MPEC 2022-M21
C/2019 JU6 (ATLAS),h,06/02.4164/2019,148.3277,21.7574,94.9381,1.000071,2.039919,2000,14.5,4.0
# From MPEC 2022-O08
C/2019 K1 (ATLAS),e,87.0263,73.3177,265.7404,5445,0.0000025,0.99962974,0.0000,02/12.2056/2020,2000,g 10.0,4.0
# From MPC119997
C/2019 K4 (Ye),e,105.2965,180.1863,139.9462,1481,0.0000173,0.99846529,0.0000,06/15.3678/2019,2000,g 12.5,4.0
